SOMP2                   
1 42700U 98067LH  17146.24099712  .00009256  00000-0  14175-3 0  9999
2 42700  51.6394 147.6262 0005235 254.8246 174.5572 15.55111160  1533
HAVELSAT                
1 42701U 98067LJ  17146.31642381  .00009020  00000-0  13835-3 0  9995
2 42701  51.6401 147.2493 0005571 239.9072 251.8913 15.55105705  1524
COLUMBIA                
1 42702U 98067LK  17146.31563003  .00016324  00000-0  24342-3 0  9999
2 42702  51.6411 147.2500 0005131 240.7681 247.5549 15.55218209  1456
SGSAT                   
1 42703U 98067LL  17146.31648630  .00015526  00000-0  23290-3 0  9994
2 42703  51.6417 147.2633 0003480 186.5620 302.5634 15.55105035  1443
CXBN-2                  
1 42704U 98067LM  17146.24175686  .00008911  00000-0  13756-3 0  9999
2 42704  51.6384 147.6415 0001662 172.4383 255.1716 15.54949199  1449
ICECUBE                 
1 42705U 98067LN  17146.31775897  .00006660  00000-0  10477-3 0  9994
2 42705  51.6384 147.2619 0002171 190.6296 301.9283 15.54914256  1516
PHOENIX                 
1 42706U 98067LP  17146.30862670  .00009420  00000-0  14424-3 0  9993
2 42706  51.6413 147.2969 0001591 208.7387 236.7375 15.55095288  1440
X-CUBESAT               
1 42707U 98067LQ  17146.31691506  .00009066  00000-0  13920-3 0  9999
2 42707  51.6390 147.2573 0001089 164.9070 326.2930 15.55073688  1431
OBEE50-LTU-OC           
1 42708U 98067LR  17146.30898514  .00009426  00000-0  14453-3 0  9999
2 42708  51.6402 147.2976 0000831 204.2355 241.8411 15.55055890  1397
ALTAIR PATHFINDER       
1 42711U 98067LS  17146.37379853  .00006534  00000-0  10373-3 0  9994
2 42711  51.6403 147.0035 0006083 173.9211 263.5556 15.54692302  1119
SHARC                   
1 42712U 98067LT  17146.31849130  .00006045  00000-0  96115-4 0  9995
2 42712  51.6405 147.2712 0002760 167.4457 323.8931 15.54810269  1340
ZA-AEROSAT              
1 42713U 98067LU  17146.31006494  .00008579  00000-0  13260-3 0  9997
2 42713  51.6397 147.3145 0004307 234.4992 210.7788 15.54970279  1106
LINK                    
1 42714U 98067LV  17146.31040925  .00009925  00000-0  15285-3 0  9990
2 42714  51.6383 147.3129 0002259 162.7260 282.6338 15.54867338  1211
CSUNSAT 1               
1 42715U 98067LW  17146.31874753  .00007941  00000-0  12421-3 0  9990
2 42715  51.6397 147.2772 0005252 165.2190 323.7957 15.54759661  1107
UPSAT                   
1 42716U 98067LX  17146.31796131  .00010815  00000-0  16507-3 0  9997
2 42716  51.6405 147.2701 0003436 245.0525 245.4715 15.55003598  1239
SPACECUBE               
1 42717U 98067LY  17146.31848382  .00008939  00000-0  13805-3 0  9996
2 42717  51.6359 147.2556 0000740  28.2884 103.8507 15.54930526   470
HOOPOE                  
1 42718U 98067LZ  17146.30953725  .00010024  00000-0  15368-3 0  9998
2 42718  51.6386 147.3131 0003987 247.9870 194.4663 15.54975590   471
UNSW-ECO                
1 42721U 98067MA  17146.89339205  .00006432  00000-0  10222-3 0  9999
2 42721  51.6395 144.4500 0007299 221.1763 226.6918 15.54686681   266
NJUST-1                 
1 42722U 98067MB  17145.60917919 -.00052252  00000-0 -77228-3 0  9994
2 42722  51.6516 150.8315 0007059 213.3724 242.1736 15.54620085    66
CHALLENGER              
1 42723U 98067MC  17146.18459052  .00005483  00000-0  88247-4 0  9994
2 42723  51.6351 147.9707 0007494 221.2958 216.8812 15.54676027   134
DUTHSAT                 
1 42724U 98067MD  17146.51785720 -.00104458  00000-0 -15699-2 0  9999
2 42724  51.6401 146.3227 0006014 226.3323 277.4960 15.54478796   118
LILACSAT-1              
1 42725U 98067ME  17146.82503551  .00011533  00000-0  17770-3 0  9996
2 42725  51.6391 144.7944 0002606 248.3317 175.8518 15.54668715   162
NSIGHT-1                
1 42726U 98067MF  17146.82475159 -.00059677  00000-0 -88596-3 0  9996
2 42726  51.6365 144.8021 0005084 279.7254 142.7050 15.54572350   165
1998-067MG              
1 42727U 98067MG  17146.74825231  .00010316  00000-0  16011-3 0  9996
2 42727  51.6391 145.1833 0007730 184.2966 168.3830 15.54582790   103
